IRIDIUM 921 [-]         
1 24873U 97034E   24057.30294611  .00027169  00000+0  86650-3 0  9993
2 24873  86.3893 343.1794 0003552  18.7517 341.3863 15.32382172458018
IRIDIUM 26 [-]          
1 24903U 97043A   24057.23428333  .00000601  00000+0  19933-3 0  9991
2 24903  86.3970 310.7623 0001923  88.5047 271.6370 14.36222338388269
IRIDIUM 22 [-]          
1 24907U 97043E   24057.62193375  .00000569  00000+0  19275-3 0  9995
2 24907  86.3978 313.7480 0002124  83.7032 276.4406 14.35119130388403
DUMMY MASS 1 [-]        
1 24925U 97048A   24057.35399888  .00000831  00000+0  91791-4 0  9993
2 24925  86.3398 355.6497 0008563  49.5309 310.6660 14.86068104434294
DUMMY MASS 2 [-]        
1 24926U 97048B   24057.37248855  .00000835  00000+0  92773-4 0  9998
2 24926  86.3398 357.1633 0009628  57.0709 303.1440 14.85827483434087
IRIDIUM 29 [-]          
1 24944U 97051A   24057.31153617  .00000677  00000+0  22827-3 0  9993
2 24944  86.4012 343.8047 0002275  79.6839 280.4613 14.35574605384833
IRIDIUM 33 [-]          
1 24946U 97051C   24057.30472291  .00000480  00000+0  16422-3 0  9992
2 24946  86.3928 343.0684 0007513 179.0043 181.1169 14.34271476384372
IRIDIUM 28 [-]          
1 24948U 97051E   24057.31973391  .00000688  00000+0  22772-3 0  9997
2 24948  86.4016 341.5922 0001974  95.8573 264.2849 14.36523140385367
